STARLINK-32094          
1 59696U 24086Q   26068.39579129 -.00001236  00000+0 -35419-4 0  9991
2 59696  43.0013  61.8558 0000827 278.2145  81.8613 15.27575061104064
FLOCK 4G-2              
1 62661U 25009BE  26068.66207492  .00013752  00000+0  51068-3 0  9995
2 62661  97.4044 151.2221 0003181 329.2677  30.8376 15.27675260121321
